STARLINK-30758          
1 58133U 23162R   26068.54730977  .00038835  00000+0  14419-2 0  9995
2 58133  43.0036 130.0263 0002801 273.5061  86.5470 15.26920058132327
XCUBE-1                 
1 62400U 24247Z   26068.48297321  .00009773  00000+0  36224-3 0  9994
2 62400  44.9938 117.7807 0005235 331.1499  28.9094 15.27910558 67702
